OBJECT_NAME,OBJECT_ID,EPOCH,MEAN_MOTION,ECCENTRICITY,INCLINATION,RA_OF_ASC_NODE,ARG_OF_PERICENTER,MEAN_ANOMALY,EPHEMERIS_TYPE,CLASSIFICATION_TYPE,NORAD_CAT_ID,ELEMENT_SET_NO,REV_AT_EPOCH,BSTAR,MEAN_MOTION_DOT,MEAN_MOTION_DDOT
TIANMU-1 20,2023-208B,2026-07-05T06:37:41.162304,15.33052539,.00056696,97.4462,303.3270,253.6611,106.4008,0,U,58661,999,14019,.35517959E-3,.1127E-3,0
TIANMU-1 21,2023-208C,2026-07-05T07:15:08.783136,15.35418772,.00058734,97.4522,306.1129,244.0458,116.0180,0,U,58662,999,14034,.37208015E-3,.12734E-3,0
TIANMU-1 22,2023-208D,2026-07-05T07:20:15.846144,15.31325840,.00021872,97.4515,302.6231,272.1954,87.9037,0,U,58663,999,14010,.32425705E-3,.9735E-4,0
TIANMU-1 15,2024-004A,2026-07-05T07:36:28.005984,15.26840915,.00056594,97.4673,12.5074,272.4087,87.6503,0,U,58700,999,13854,.29301729E-3,.7657E-4,0
TIANMU-1 16,2024-004B,2026-07-05T07:22:15.441024,15.26942696,.00043725,97.4620,11.7196,293.7621,66.3159,0,U,58701,999,13854,.26996064E-3,.7069E-4,0
TIANMU-1 17,2024-004C,2026-07-05T07:01:20.013600,15.26940431,.00039613,97.4647,12.1966,301.8404,58.2449,0,U,58702,999,13853,.26449982E-3,.6924E-4,0
TIANMU-1 18,2024-004D,2026-07-05T08:00:29.222784,15.26858659,.00033561,97.4665,12.4994,274.4814,85.6041,0,U,58703,999,13854,.28190299E-3,.7366E-4,0
INSAT-3DS,2024-033A,2026-07-05T03:03:38.624832,1.00273143,.00012284,0.0769,96.2144,14.7334,300.1498,0,U,58990,999,4724,0,-.143E-5,0
METEOR-M2 4,2024-039A,2026-07-05T06:16:18.415200,14.22431410,.00081131,98.7019,145.3329,113.5167,246.6865,0,U,59051,999,12183,.30641752E-4,.25E-6,0
GOES 19,2024-119A,2026-07-05T03:13:02.428032,1.00270026,.0000569,0.0158,195.6056,338.2546,82.3341,0,U,60133,999,714,0,-.235E-5,0
MTG-S1,2025-143A,2026-07-05T05:17:03.578784,1.00272435,.00031148,0.5901,342.7253,262.2554,117.0515,0,U,64723,999,360,0,.5E-7,0
METOP-SGA1,2025-172A,2026-07-05T04:19:41.492640,14.19818201,.00076239,98.6633,245.5274,2.1322,357.9886,0,U,65159,999,4634,.55018906E-4,.73E-6,0
FENGYUN 3H,2025-219A,2026-07-04T14:05:27.857472,14.19923623,.00013772,98.6770,126.0181,65.8289,294.3032,0,U,65815,999,3985,.66943895E-4,.99E-6,0
