TIANMU-1 20             
1 58661U 23208B   26186.27617086  .00011270  00000+0  35518-3 0  9996
2 58661  97.4462 303.3270 0005669 253.6611 106.4008 15.33052539140198
TIANMU-1 21             
1 58662U 23208C   26186.30218499  .00012734  00000+0  37208-3 0  9990
2 58662  97.4522 306.1129 0005873 244.0458 116.0180 15.35418772140342
TIANMU-1 22             
1 58663U 23208D   26186.30573896  .00009735  00000+0  32426-3 0  9990
2 58663  97.4515 302.6231 0002187 272.1954  87.9037 15.31325840140108
TIANMU-1 15             
1 58700U 24004A   26186.31699081  .00007657  00000+0  29302-3 0  9993
2 58700  97.4673  12.5074 0005659 272.4087  87.6503 15.26840915138543
TIANMU-1 16             
1 58701U 24004B   26186.30712316  .00007069  00000+0  26996-3 0  9993
2 58701  97.4620  11.7196 0004372 293.7621  66.3159 15.26942696138543
TIANMU-1 17             
1 58702U 24004C   26186.29259275  .00006924  00000+0  26450-3 0  9996
2 58702  97.4647  12.1966 0003961 301.8404  58.2449 15.26940431138532
TIANMU-1 18             
1 58703U 24004D   26186.33367156  .00007366  00000+0  28190-3 0  9994
2 58703  97.4665  12.4994 0003356 274.4814  85.6041 15.26858659138548
INSAT-3DS               
1 58990U 24033A   26186.12753038 -.00000143  00000+0  00000+0 0  9992
2 58990   0.0769  96.2144 0001228  14.7334 300.1498  1.00273143 47249
METEOR-M2 4             
1 59051U 24039A   26186.26132425  .00000025  00000+0  30642-4 0  9991
2 59051  98.7019 145.3329 0008113 113.5167 246.6865 14.22431410121834
GOES 19                 
1 60133U 24119A   26186.13405588 -.00000235  00000+0  00000+0 0  9996
2 60133   0.0158 195.6056 0000569 338.2546  82.3341  1.00270026  7143
MTG-S1                  
1 64723U 25143A   26186.22018031  .00000005  00000+0  00000+0 0  9990
2 64723   0.5901 342.7253 0003114 262.2554 117.0515  1.00272435  3603
METOP-SGA1              
1 65159U 25172A   26186.18034135  .00000073  00000+0  55019-4 0  9994
2 65159  98.6633 245.5274 0007623   2.1322 357.9886 14.19818201 46348
FENGYUN 3H              
1 65815U 25219A   26185.58712798  .00000099  00000+0  66944-4 0  9993
2 65815  98.6770 126.0181 0001377  65.8289 294.3032 14.19923623 39857
